{
  "last_updated": "2026-06-11T06:00:02.391312",
  "satellites": {
    "98592": {
      "name": "DUTHSat-2",
      "norad_id": "98592",
      "tle": "1 64530U 25135C   26161.31385923  .00011790  00000-0  45063-3 0  9993\n2 64530  97.4609 277.2281 0004604 197.9495 162.1582 15.26754477 53889",
      "epoch": "2026-06-10T07:31:57.437472",
      "fetched_at": "2026-06-11T06:00:02.530868",
      "source": "satnogs"
    },
    "98530": {
      "name": "LAMARR",
      "norad_id": "98530",
      "tle": "1 66673U 25276H   26026.90917087  .00034524  00000-0  16680-2 0  9998\n2 66673  97.4301 102.8338 0007597 141.5941 218.5835 15.18529012  8972",
      "epoch": "2026-01-26T21:49:12.363168",
      "fetched_at": "2026-01-28T06:00:02.884758",
      "source": "satnogs",
      "note": "Using previous TLE (fetch/manual failed today)"
    },
    "98529": {
      "name": "DIRAC",
      "norad_id": "98529",
      "tle": "1 66681U 25276R   26026.63281774  .00024563  00000-0  11745-2 0  9993\n2 66681  97.4280 102.5712 0006320 148.4115 211.7500 15.18972786  8932",
      "epoch": "2026-01-26T15:11:15.452736",
      "fetched_at": "2026-01-28T06:00:02.937152",
      "source": "satnogs",
      "note": "Using previous TLE (fetch/manual failed today)"
    },
    "98518": {
      "name": "MICE-1",
      "norad_id": "98518",
      "tle": "1 66684U 25276U   26161.46076826  .00003396  00000-0  16481-3 0  9991\n2 66684  97.4272 235.2009 0006010  33.4898 326.6716 15.19144607 29398",
      "epoch": "2026-06-10T11:03:30.377664",
      "fetched_at": "2026-06-11T06:00:02.718730",
      "source": "satnogs"
    },
    "68416": {
      "name": "PeakSat",
      "norad_id": "68416",
      "tle": "1 68416U 26067A   26160.84766422  .00006520  00000-0  31127-3 0  9990\n2 68416  97.4536 119.5182 0000942   8.2205 351.9045 15.19390278 10834",
      "epoch": "2026-06-09T20:20:38.188608",
      "fetched_at": "2026-06-11T06:00:02.773342",
      "source": "satnogs"
    },
    "98370": {
      "name": "OptiSat",
      "norad_id": "98370",
      "tle": "1 69696U 69696    26089.46895426  .00000000  00000-0  00000-0 0 00004\n2 69696 097.4414 038.3720 0003145 156.7651 191.1423 15.18459822000011",
      "epoch": "2026-03-30T11:15:17.648064",
      "fetched_at": "2026-04-17T12:47:18.541523",
      "source": "manual"
    },
    "68468": {
      "name": "ERMIS-1",
      "norad_id": "68468",
      "tle": "1 68468U 26067BE  26161.13573042  .00008054  00000-0  40366-3 0  9993\n2 68468  97.4540 119.6049 0009051  83.8391 276.3874 15.17585527 10868",
      "epoch": "2026-06-10T03:15:27.108288",
      "fetched_at": "2026-06-11T06:00:02.830636",
      "source": "satnogs"
    },
    "68420": {
      "name": "ERMIS-2",
      "norad_id": "68420",
      "tle": "1 68420U 26067E   26160.84558876  .00009594  00000-0  45317-3 0  9997\n2 68420  97.4469 119.4647 0000947  83.2540 276.8802 15.19630390 10837",
      "epoch": "2026-06-09T20:17:38.868864",
      "fetched_at": "2026-06-11T06:00:02.891351",
      "source": "satnogs"
    },
    "98367": {
      "name": "ERMIS-3",
      "norad_id": "98367",
      "tle": "1 68425U 26067K   26161.59847711  .00004255  00000-0  20827-3 0  9992\n2 68425  97.4580 120.2388 0002401  51.3808 308.7641 15.18721719 10941",
      "epoch": "2026-06-10T14:21:48.422304",
      "fetched_at": "2026-06-11T06:00:02.945707",
      "source": "satnogs"
    },
    "69021": {
      "name": "Helios",
      "norad_id": "69021",
      "tle": "1 69021U 26100AT  26161.45833955  .00007042  00000-0  33061-3 0  9994\n2 69021  97.4037  59.3566 0005424  32.6460 327.5110 15.19927681  5788",
      "epoch": "2026-06-10T11:00:00.537120",
      "fetched_at": "2026-06-11T06:00:02.999543",
      "source": "satnogs"
    },
    "69020": {
      "name": "Selene",
      "norad_id": "69020",
      "tle": "1 69020U 26100AS  26161.46087897  .00006011  00000-0  28380-3 0  9993\n2 69020  97.4052  59.3639 0004722  29.7857 330.3646 15.19797727  5784",
      "epoch": "2026-06-10T11:03:39.943008",
      "fetched_at": "2026-06-11T06:00:03.056078",
      "source": "satnogs"
    }
  },
  "fetch_log": []
}